{
  "type": "FeatureCollection",
  "features": [
    {
      "type": "Feature",
      "geometry": {
        "type": "Point",
        "coordinates": [
          -5.6427,
          59.3799
        ]
      },
      "properties": {
        "callsign": "UAE5V",
        "country": "United Arab Emirates",
        "altitude_ft": 39000,
        "speed_kmh": 993,
        "heading": 95.03,
        "updated_utc": "2026-10-07 20:34:48 UTC"
      }
    },
    {
      "type": "Feature",
      "geometry": {
        "type": "Point",
        "coordinates": [
          -19.4296,
          63.358
        ]
      },
      "properties": {
        "callsign": "TRA68A",
        "country": "Kingdom of the Netherlands",
        "altitude_ft": 31375,
        "speed_kmh": 920,
        "heading": 113.88,
        "updated_utc": "2026-10-07 20:34:48 UTC"
      }
    },
    {
      "type": "Feature",
      "geometry": {
        "type": "Point",
        "coordinates": [
          -21.9553,
          64.2218
        ]
      },
      "properties": {
        "callsign": "ICE71G",
        "country": "Iceland",
        "altitude_ft": 2025,
        "speed_kmh": 262,
        "heading": 175.54,
        "updated_utc": "2026-10-07 20:34:48 UTC"
      }
    },
    {
      "type": "Feature",
      "geometry": {
        "type": "Point",
        "coordinates": [
          -17.8988,
          63.2119
        ]
      },
      "properties": {
        "callsign": "VLG2SQ",
        "country": "Spain",
        "altitude_ft": 38000,
        "speed_kmh": 664,
        "heading": 297.21,
        "updated_utc": "2026-10-07 20:34:48 UTC"
      }
    },
    {
      "type": "Feature",
      "geometry": {
        "type": "Point",
        "coordinates": [
          -23.2492,
          63.8938
        ]
      },
      "properties": {
        "callsign": "ICE605",
        "country": "Iceland",
        "altitude_ft": 9800,
        "speed_kmh": 524,
        "heading": 269.8,
        "updated_utc": "2026-10-07 20:34:48 UTC"
      }
    },
    {
      "type": "Feature",
      "geometry": {
        "type": "Point",
        "coordinates": [
          -73.7866,
          72.3518
        ]
      },
      "properties": {
        "callsign": "DLH458",
        "country": "Germany",
        "altitude_ft": 37000,
        "speed_kmh": 864,
        "heading": 238.32,
        "updated_utc": "2026-10-07 20:34:48 UTC"
      }
    },
    {
      "type": "Feature",
      "geometry": {
        "type": "Point",
        "coordinates": [
          -67.2819,
          71.818
        ]
      },
      "properties": {
        "callsign": "UAL939",
        "country": "United States",
        "altitude_ft": 36000,
        "speed_kmh": 891,
        "heading": 258.13,
        "updated_utc": "2026-10-07 20:34:48 UTC"
      }
    },
    {
      "type": "Feature",
      "geometry": {
        "type": "Point",
        "coordinates": [
          -26.6344,
          65.7448
        ]
      },
      "properties": {
        "callsign": "LOT37",
        "country": "Poland",
        "altitude_ft": 38000,
        "speed_kmh": 782,
        "heading": 282.03,
        "updated_utc": "2026-10-07 20:34:48 UTC"
      }
    }
  ]
}